[{"OBJECT_NAME":"STARLINK-1656","OBJECT_ID":"2020-062AE","EPOCH":"2026-03-09T22:08:49.885440","MEAN_MOTION":15.52163178,"ECCENTRICITY":0.00027689,"INCLINATION":53.0506,"RA_OF_ASC_NODE":358.4215,"ARG_OF_PERICENTER":148.6798,"MEAN_ANOMALY":211.4376,"EPHEMERIS_TYPE":0,"CLASSIFICATION_TYPE":"U","NORAD_CAT_ID":46353,"ELEMENT_SET_NO":999,"REV_AT_EPOCH":30458,"BSTAR":0.0018174616,"MEAN_MOTION_DOT":0.00113057,"MEAN_MOTION_DDOT":0},{"OBJECT_NAME":"FIREFLY ALPHA R\/B","OBJECT_ID":"2024-125H","EPOCH":"2026-03-09T22:20:21.817248","MEAN_MOTION":15.57788305,"ECCENTRICITY":0.00251129,"INCLINATION":97.2295,"RA_OF_ASC_NODE":290.9164,"ARG_OF_PERICENTER":188.9854,"MEAN_ANOMALY":171.0957,"EPHEMERIS_TYPE":0,"CLASSIFICATION_TYPE":"U","NORAD_CAT_ID":60210,"ELEMENT_SET_NO":999,"REV_AT_EPOCH":9448,"BSTAR":0.0005026464,"MEAN_MOTION_DOT":0.00037909,"MEAN_MOTION_DDOT":0}]
